satname,norad_id,inclination_deg,eccentricity,mean_motion_rev_per_day,perigee_km,apogee_km,l1,l2
STARLINK-1296,45412,53.1594,0.0002201,15.33890765,462.71121050197144,465.7232148263847,1 45412U 20019BE  26109.92647654  .00029836  00000+0  90507-3 0  9990,2 45412  53.1594 297.1967 0002201 230.2512 129.8296 15.33890765336293
STARLINK-1309,45414,53.0643,0.000516,15.62835702,375.9835057085247,382.95735657746354,1 45414U 20019BG  26109.91515409  .00065668  00000+0  71458-3 0  9990,2 45414  53.0643 283.1980 0005160 207.4650 152.6091 15.62835702336463
STARLINK-1316,45415,53.1586,0.0002896,15.34128409,461.52924383919253,465.49192612041224,1 45415U 20019BH  26109.83965726  .00029572  00000+0  89046-3 0  9999,2 45415  53.1586 297.6353 0002896 240.8135 119.2578 15.34128409336307
STARLINK-1286,45417,53.0479,0.000289,15.54212955,402.48127228669273,406.4016026235413,1 45417U 20019BK  26109.93401511  .00040473  00000+0  61433-3 0  9992,2 45417  53.0479 292.0436 0002890 189.7337 170.3617 15.54212955336639
STARLINK-1308,45419,53.0493,0.0005772,15.5811071,389.21685419298046,397.0335993075414,1 45419U 20019BM  26109.89373523  .00059651  00000+0  77876-3 0  9996,2 45419  53.0493 313.0586 0005772 193.7962 166.2892 15.58110710336086
STARLINK-1329,45531,53.0445,0.00022,15.67384234,364.90663481892534,367.87422688850165,1 45531U 20025A   26108.66165799  .00058519  00000+0  53275-3 0  9995,2 45531  53.0445 245.6637 0002200 339.5470  20.5457 15.67384234331709
STARLINK-1338,45532,53.0464,8.52e-05,15.62039753,381.18988533638185,382.34177277845265,1 45532U 20025B   26109.68194092  .00067742  00000+0  76029-3 0  9997,2 45532  53.0464 245.5215 0000852 274.2770  85.8146 15.62039753331797
STARLINK-1350,45535,53.0715,7.49e-05,15.37133472,454.07905614621814,455.10259877477074,1 45535U 20025E   26109.96059007  .00008581  00000+0  24288-3 0  9993,2 45535  53.0715 199.1578 0000749  95.2632 264.8456 15.37133472332506
STARLINK-1362,45538,53.1607,0.0001921,15.32591977,466.7671891467371,469.3975066201938,1 45538U 20025H   26109.84344531 -.00160613  00000+0 -51295-2 0  9996,2 45538  53.1607 269.5609 0001921  89.9290 270.1932 15.32591977331488
STARLINK-1368,45540,53.1592,9.87e-05,15.33039762,466.0735529793619,467.42473350403725,1 45540U 20025K   26109.85722028  .00027745  00000+0  86554-3 0  9994,2 45540  53.1592 269.8684 0000987  27.5588 332.5467 15.33039762331474
STARLINK-1371,45542,53.0492,0.0003181,15.5387945,403.2540403163075,407.5697341183559,1 45542U 20025M   26109.67672731  .00055439  00000+0  84744-3 0  9991,2 45542  53.0492 252.5740 0003181 301.3008  58.7690 15.53879450331692
STARLINK-1372,45543,53.1609,6.61e-05,15.33399323,465.2267042242602,466.13145671009806,1 45543U 20025N   26109.17946258  .00025587  00000+0  79037-3 0  9995,2 45543  53.1609 272.6999 0000661  28.4996 331.6043 15.33399323330470
STARLINK-1373,45544,53.0469,0.0001815,15.58143853,391.800239535989,394.25817286884103,1 45544U 20025P   26109.65034016  .00064434  00000+0  83960-3 0  9993,2 45544  53.0469 251.0715 0001815 256.2270 103.8539 15.58143853331718
STARLINK-1327,45555,53.0438,0.0004033,15.60713422,382.86729001342974,388.32291632784745,1 45555U 20025AA  26109.58871293  .00066252  00000+0  78261-3 0  9991,2 45555  53.0438 228.0949 0004033 255.5862 104.4703 15.60713422332026
STARLINK-1356,45564,53.0473,0.0002687,15.51070776,411.77356416438397,415.4234428239615,1 45564U 20025AK  26108.63032649  .00077417  00000+0  13024-2 0  9990,2 45564  53.0473 242.7703 0002687 220.6379 139.4429 15.51070776331733
STARLINK-1357,45565,53.0453,0.0006917,15.64343965,370.45493372699457,379.79739799064373,1 45565U 20025AL  26109.26770466  .00080582  00000+0  82330-3 0  9991,2 45565  53.0453 200.3542 0006917 323.2943  36.7596 15.64343965332394
STARLINK-1361,45567,53.0471,0.0002035,15.54415031,402.47346021559497,405.23373038788304,1 45567U 20025AN  26109.85993676  .00055505  00000+0  83214-3 0  9997,2 45567  53.0471 235.9946 0002035 188.2554 171.8423 15.54415031331945
STARLINK-1363,45568,53.0354,0.0002207,15.89095264,303.3433125946658,306.2931690379628,1 45568U 20025AP  26109.91670139  .00133998  00000+0  45275-3 0  9999,2 45568  53.0354 190.0352 0002207   5.7034 238.7580 15.89095264  5906
STARLINK-1366,45569,53.0362,0.0001877,15.86531785,310.75933176589024,313.2708148542106,1 45569U 20025AQ  26109.91670139  .00099728  00000+0  38475-3 0  9996,2 45569  53.0362 191.2654 0001877 320.9121 338.2260 15.86531785  6008
STARLINK-1376,45570,53.1595,0.0002748,15.33891575,462.3345255665936,466.09508211798493,1 45570U 20025AR  26109.55934928  .00030525  00000+0  92557-3 0  9998,2 45570  53.1595 247.4635 0002748 318.3531  41.7262 15.33891575331766
STARLINK-1320,45572,53.0443,0.000273,15.75748896,340.66622074824045,344.33568907162044,1 45572U 20025AT  26109.80672993  .00078518  00000+0  50026-3 0  9998,2 45572  53.0443 141.7495 0002730 112.0620 248.0689 15.75748896333274
STARLINK-1321,45573,53.0452,0.0003566,15.55575037,398.06432734242935,402.8988381156314,1 45573U 20025AU  26109.64802964  .00061619  00000+0  88382-3 0  9994,2 45573  53.0452 221.3285 0003566 305.5635  54.5042 15.55575037331825
STARLINK-1331,45578,53.0497,0.0005255,15.55217726,397.95709094875474,405.0825102461813,1 45578U 20025AZ  26109.78894105  .00058434  00000+0  84967-3 0  9998,2 45578  53.0497 227.3984 0005255 284.5318  75.5109 15.55217726332064
STARLINK-1333,45580,53.1606,0.0001186,15.31051738,471.86060624648235,473.48561840512593,1 45580U 20025BB  26109.64218900  .00050078  00000+0  16476-2 0  9994,2 45580  53.1606 247.5500 0001186  40.7037 319.4052 15.31051738331774
STARLINK-1335,45581,53.1581,0.0001556,15.32513915,467.2495229303122,469.3801387400681,1 45581U 20025BC  26109.65656802  .00008482  00000+0  27772-3 0  9997,2 45581  53.1581 244.7607 0001556  15.8702 344.2349 15.32513915331807
STARLINK-1337,45582,53.0491,0.0005759,15.66296176,365.62757519572733,373.39951909592946,1 45582U 20025BD  26109.82216404  .00075155  00000+0  71147-3 0  9993,2 45582  53.0491 220.7660 0005759 297.4802  62.5628 15.66296176332140
STARLINK-1347,45586,53.0399,0.0003855,15.62677749,377.320555794553,382.5310222048711,1 45586U 20025BH  26109.91616838  .00074913  00000+0  81865-3 0  9991,2 45586  53.0399 189.0994 0003855 340.1895  19.8968 15.62677749332597
STARLINK-1364,45589,53.046,0.0004659,15.56744683,393.9292120437949,400.24236463797206,1 45589U 20025BL  26109.61059580  .00058764  00000+0  80768-3 0  9993,2 45589  53.0460 225.8747 0004659 256.2339 103.8154 15.56744683332054
STARLINK-1365,45590,53.0498,0.0003256,15.51724616,409.4797423557611,413.90127803040014,1 45590U 20025BM  26109.84283668  .00049059  00000+0  81195-3 0  9998,2 45590  53.0498 256.4787 0003256 243.2279 116.8396 15.51724616331669
STARLINK-1443,45660,53.1355,0.0001771,15.28715657,478.4361216002508,480.8651499808475,1 45660U 20035D   26109.62225434  .00028051  00000+0  10001-2 0  9996,2 45660  53.1355 235.6021 0001771 279.0401  81.0398 15.28715657325010
STARLINK-1446,45663,53.0227,0.0003911,15.44702006,429.5902654463989,434.9173531374281,1 45663U 20035G   26109.85518722  .00015636  00000+0  33795-3 0  9990,2 45663  53.0227 163.5639 0003911  39.0717 321.0570 15.44702006326030
STARLINK-1448,45665,53.046,0.000577,15.61179875,380.34588418218937,388.14967621854066,1 45665U 20035J   26109.80103411  .00070066  00000+0  81196-3 0  9998,2 45665  53.0460 213.4287 0005770 285.8599  74.1777 15.61179875325326
STARLINK-1451,45668,53.0515,3.67e-05,15.12108252,529.518127242527,530.0251677372516,1 45668U 20035M   26109.62011856  .00013628  00000+0  79786-3 0  9995,2 45668  53.0515 240.9562 0000367  47.8131 312.2891 15.12108252324932
STARLINK-1452,45669,53.0279,0.0001187,15.50993218,413.01871125548496,414.63112301461297,1 45669U 20035N   26109.93041549  .00050795  00000+0  86249-3 0  9990,2 45669  53.0279 184.2853 0001187 273.4107  86.6766 15.50993218325754
STARLINK-1453,45670,53.0415,0.0002645,15.6164557,381.1150206328475,384.6916109599033,1 45670U 20035P   26109.46223270  .00064599  00000+0  73665-3 0  9998,2 45670  53.0415 175.5472 0002645   3.7478 356.3554 15.61645570325729
STARLINK-1454,45671,53.0465,0.0004131,15.59273093,386.96383256829904,392.55546878108726,1 45671U 20035Q   26109.55365799  .00047569  00000+0  59678-3 0  9998,2 45671  53.0465 215.1822 0004131 266.6645  93.3895 15.59273093325273
STARLINK-1456,45673,53.0458,0.0006355,15.57259923,391.2865536867939,399.8959623027058,1 45673U 20035S   26109.59753017  .00062285  00000+0  83874-3 0  9995,2 45673  53.0458 208.9649 0006355 331.1778  28.8881 15.57259923325383
STARLINK-1457,45674,53.0387,0.0004617,15.93437723,289.5911512339899,295.75097539965645,1 45674U 20035T   26109.91670139  .00210928  28057-4  58411-3 0  9990,2 45674  53.0387 173.8488 0004617 347.5112 152.9020 15.93437723  6014
STARLINK-1458,45675,53.049,0.0005268,15.49068736,415.8681035668087,423.0300402521734,1 45675U 20035U   26109.60029815  .00048340  00000+0  87878-3 0  9995,2 45675  53.0490 220.3897 0005268 276.3789  83.6619 15.49068736325185
STARLINK-1460,45676,53.1599,0.0001216,15.30988832,472.0276892827251,473.69385194053757,1 45676U 20035V   26109.61343263  .00030077  00000+0  99888-3 0  9995,2 45676  53.1599 234.8221 0001216  21.4951 338.6101 15.30988832324981
STARLINK-1392,45677,53.1562,0.0001126,15.33822642,463.64933622330136,465.19028001648985,1 45677U 20035W   26109.60046826  .00031196  00000+0  94770-3 0  9998,2 45677  53.1562 234.6229 0001126  56.5608 303.5502 15.33822642325027
STARLINK-1394,45679,53.0449,0.0007382,15.57191744,390.78846186839746,400.78948617644437,1 45679U 20035Y   26109.53039027  .00054556  00000+0  73786-3 0  9996,2 45679  53.0449 199.5133 0007382 330.1981  29.8608 15.57191744325506
STARLINK-1402,45685,53.0429,0.0008078,15.51390325,407.1802384321145,418.1514595149165,1 45685U 20035AE  26109.90469524  .00083394  00000+0  13840-2 0  9999,2 45685  53.0429 186.1404 0008078   7.1457 352.9665 15.51390325325734
